{
"type": "FeatureCollection",
"name": "zanja_madre_final",
"crs": { "type": "name", "properties": { "name": "urn:ogc:def:crs:OGC:1.3:CRS84" } },
"features": [
{ "type": "Feature", "properties": { "id": null }, "geometry": { "type": "MultiLineString", "coordinates": [ [ [ -118.22727832801867, 34.075879522585282 ], [ -118.227296753190501, 34.075791768085757 ], [ -118.227246083968012, 34.075539950321513 ], [ -118.22720002103847, 34.075452195470184 ], [ -118.227117107765309, 34.075322470740851 ], [ -118.227034194492191, 34.075158406828038 ], [ -118.226992737855568, 34.07496000353224 ], [ -118.226928249754266, 34.074685290509358 ], [ -118.226688722520734, 34.074257957369618 ], [ -118.226642659591164, 34.074036659003582 ], [ -118.226550533732137, 34.073853515091031 ], [ -118.226393919771738, 34.073548274356881 ], [ -118.226301793912654, 34.073296449923234 ], [ -118.226301793912654, 34.072922527413425 ], [ -118.226301793912654, 34.07257149661654 ], [ -118.226384707185844, 34.072350193844855 ], [ -118.226587384075756, 34.071976267158369 ], [ -118.226845336481119, 34.071556551564719 ], [ -118.227140139230087, 34.071159727636562 ], [ -118.227481004908597, 34.070793426976202 ], [ -118.227568524474762, 34.070717114139285 ], [ -118.227771201364646, 34.070652248173865 ], [ -118.228116673336146, 34.070537778701961 ], [ -118.228448326428762, 34.070491990869897 ], [ -118.22887210538039, 34.070430940388647 ], [ -118.229272852867339, 34.070354627225221 ], [ -118.229470923464291, 34.070297392307531 ], [ -118.229839426900512, 34.070121871652226 ], [ -118.229963796810267, 34.069980691730812 ], [ -118.230065135255231, 34.069850958622645 ], [ -118.230253993266317, 34.0695151778908 ], [ -118.230410607226702, 34.069332024203433 ], [ -118.230645528167315, 34.069145054405865 ], [ -118.230949543502206, 34.069019135738259 ], [ -118.231221314786438, 34.068973347085446 ], [ -118.231626668566278, 34.068900848334586 ], [ -118.231926077608207, 34.068851243890343 ], [ -118.232289974751509, 34.068816902335016 ], [ -118.232483439055514, 34.068801639417075 ], [ -118.232953280936741, 34.068725324786101 ], [ -118.233234840593369, 34.06858366557011 ], [ -118.233565917899455, 34.068412434080415 ], [ -118.233842295476663, 34.068191120444588 ], [ -118.234118673053842, 34.067962174695765 ], [ -118.234399656923941, 34.067782833427081 ], [ -118.234717491137715, 34.067595860210872 ], [ -118.235076781988042, 34.067382176030009 ], [ -118.235270246292046, 34.067240991543443 ], [ -118.235518986111543, 34.066909030357479 ], [ -118.235684812657851, 34.066695346444853 ], [ -118.235832214032328, 34.06639008277773 ], [ -118.235998040578636, 34.0661458710522 ], [ -118.236071741265889, 34.065871132019652 ], [ -118.236145441953127, 34.065764288821981 ], [ -118.23618229229676, 34.065581128741108 ], [ -118.236366544014871, 34.064985855744013 ], [ -118.236375756600737, 34.064672954158496 ], [ -118.236287661248056, 34.064265130997953 ], [ -118.236352149349401, 34.063883540298399 ], [ -118.236407424864836, 34.063700376152241 ], [ -118.236490338138012, 34.063494316014612 ], [ -118.236508763309828, 34.063326414791256 ], [ -118.236545613653448, 34.063021138987409 ], [ -118.236582463997038, 34.06265480657116 ], [ -118.236591676582933, 34.062341896378257 ], [ -118.236591676582989, 34.062059513017282 ], [ -118.236633133219556, 34.061880160934535 ], [ -118.236757503129297, 34.061632120194645 ], [ -118.236798959765864, 34.061464215281767 ], [ -118.236840416402444, 34.061300126068225 ], [ -118.23688187303901, 34.06107116384397 ], [ -118.236960180019224, 34.060895625719802 ], [ -118.237038486999424, 34.06074679963406 ], [ -118.237264195354115, 34.060082803144397 ], [ -118.237383958970909, 34.059762251253019 ], [ -118.237457659658148, 34.059327214604103 ], [ -118.237549785517217, 34.058953233945587 ], [ -118.237558998103111, 34.058472399245609 ], [ -118.237563604396001, 34.058155657437077 ], [ -118.237563604396001, 34.057877076313908 ], [ -118.237563604396001, 34.057644288645733 ], [ -118.237591242153727, 34.057293197838597 ], [ -118.237609667325572, 34.057132916769234 ], [ -118.237655730255085, 34.057010797655792 ], [ -118.237651123962138, 34.056915391976034 ], [ -118.237591242153727, 34.056846699820085 ], [ -118.237554391810107, 34.056612001200612 ], [ -118.237545179224213, 34.056367761296862 ], [ -118.237563604396058, 34.056199845954787 ], [ -118.237669549133955, 34.056035746549099 ], [ -118.237816950508446, 34.055795321264789 ], [ -118.238374311955752, 34.055211428449496 ], [ -118.238576988845679, 34.055047327130339 ], [ -118.239014586676205, 34.054799266393665 ], [ -118.239940451559718, 34.054333673512687 ], [ -118.240249073187584, 34.054200101312496 ], [ -118.240456356370458, 34.054108508825003 ], [ -118.240456356370458, 34.054108508825003 ] ] ] } }
]
}
